IRIDIUM 166             
1 43570U 18061B   24180.88859286  .00000099  00000+0  28417-4 0  9997
2 43570  86.3972 356.9190 0002318  94.7163 265.4298 14.34218422310442
IRIDIUM 158             
1 43571U 18061C   24181.55455916  .00000126  00000+0  38039-4 0  9997
2 43571  86.3975 356.6500 0002268  88.8161 271.3295 14.34215291310516
IRIDIUM 165             
1 43572U 18061D   24180.95201814  .00000555  00000+0  19120-3 0  9992
2 43572  86.3973 356.9342 0002291  88.1664 271.9795 14.34217842310446
IRIDIUM 155             
1 43573U 18061E   24181.54188001  .00000002  00000+0 -62492-5 0  9991
2 43573  86.3968 356.5928 0002200  95.5303 264.6144 14.34217633310501
IRIDIUM 154             
1 43574U 18061F   24180.89493503  .00000052  00000+0  11428-4 0  9991
2 43574  86.3976 356.9614 0001990  87.0859 273.0565 14.34217859310459
IRIDIUM 163             
1 43575U 18061G   24180.94567542  .00000002  00000+0 -61850-5 0  9994
2 43575  86.3969 356.8782 0002002  91.1486 268.9939 14.34217671310432
IRIDIUM 156             
1 43576U 18061H   24180.92030605  .00000035  00000+0  53562-5 0  9994
2 43576  86.3974 356.8950 0002304  90.1927 269.9533 14.34217384310421
IRIDIUM 164             
1 43577U 18061J   24180.90127786  .00000094  00000+0  26353-4 0  9992
2 43577  86.3976 356.9322 0002218  82.8158 277.3290 14.34217539310465
